{"type": "FeatureCollection", "features": [ {"type": "Feature", "properties": {"norad_id": 66541, "name": "STARLINK-35796", "group": "last-30-days", "lat": -35.637347334601714, "lon": 47.414615624211265, "alt_km": 359.2349113480359, "timestamp": "2025-12-05T07:38:17.628261+00:00", "meta": {"OBJECT_NAME": "STARLINK-35796", "OBJECT_ID": "2025-265AB", "EPOCH": "2025-12-04T18:00:02.000160", "MEAN_MOTION": 15.7274753, "ECCENTRICITY": 0.0001592, "INCLINATION": 43.0002, "RA_OF_ASC_NODE": 101.1409, "ARG_OF_PERICENTER": 283.1172, "MEAN_ANOMALY": 39.3414, "EPHEMERIS_TYPE": 0, "CLASSIFICATION_TYPE": "U", "NORAD_CAT_ID": 66541, "ELEMENT_SET_NO": 999, "REV_AT_EPOCH": 371, "BSTAR": -0.015041, "MEAN_MOTION_DOT": -0.01828392, "MEAN_MOTION_DDOT": 0}, "tle": {"line1": "1 66541U 25265AB  25338.75002315 -.01828392  00000+0 -15041-1 0  9992", "line2": "2 66541  43.0002 101.1409 0001592 283.1172  39.3414 15.72747530  3716"}}, "geometry": {"type": "Point", "coordinates": [47.414615624211265, -35.637347334601714]}}, {"type": "Feature", "properties": {"norad_id": 66542, "name": "STARLINK-35833", "group": "last-30-days", "lat": -34.7853453800754, "lon": 49.508819321428156, "alt_km": 359.44887052898866, "timestamp": "2025-12-05T07:38:17.628271+00:00", "meta": {"OBJECT_NAME": "STARLINK-35833", "OBJECT_ID": "2025-265AC", "EPOCH": "2025-12-04T18:00:02.000160", "MEAN_MOTION": 15.72748156, "ECCENTRICITY": 0.0001263, "INCLINATION": 43.0003, "RA_OF_ASC_NODE": 101.1365, "ARG_OF_PERICENTER": 279.9959, "MEAN_ANOMALY": 44.3806, "EPHEMERIS_TYPE": 0, "CLASSIFICATION_TYPE": "U", "NORAD_CAT_ID": 66542, "ELEMENT_SET_NO": 999, "REV_AT_EPOCH": 371, "BSTAR": -0.015061, "MEAN_MOTION_DOT": -0.01830271, "MEAN_MOTION_DDOT": 0}, "tle": {"line1": "1 66542U 25265AC  25338.75002315 -.01830271  00000+0 -15061-1 0  9994", "line2": "2 66542  43.0003 101.1365 0001263 279.9959  44.3806 15.72748156  3716"}}, "geometry": {"type": "Point", "coordinates": [49.508819321428156, -34.7853453800754]}}, {"type": "Feature", "properties": {"norad_id": 66543, "name": "STARLINK-35315", "group": "last-30-days", "lat": -33.89776856674218, "lon": 51.558381891771816, "alt_km": 359.1853674397489, "timestamp": "2025-12-05T07:38:17.628281+00:00", "meta": {"OBJECT_NAME": "STARLINK-35315", "OBJECT_ID": "2025-265AD", "EPOCH": "2025-12-04T18:00:02.000160", "MEAN_MOTION": 15.72744577, "ECCENTRICITY": 0.0001527, "INCLINATION": 43.0002, "RA_OF_ASC_NODE": 101.131, "ARG_OF_PERICENTER": 285.5858, "MEAN_ANOMALY": 40.7079, "EPHEMERIS_TYPE": 0, "CLASSIFICATION_TYPE": "U", "NORAD_CAT_ID": 66543, "ELEMENT_SET_NO": 999, "REV_AT_EPOCH": 360, "BSTAR": -0.015008, "MEAN_MOTION_DOT": -0.0182465, "MEAN_MOTION_DDOT": 0}, "tle": {"line1": "1 66543U 25265AD  25338.75002315 -.01824650  00000+0 -15008-1 0  9990", "line2": "2 66543  43.0002 101.1310 0001527 285.5858  40.7079 15.72744577  3603"}}, "geometry": {"type": "Point", "coordinates": [51.558381891771816, -33.89776856674218]}}, {"type": "Feature", "properties": {"norad_id": 66544, "name": "STARLINK-35728", "group": "last-30-days", "lat": -32.97579546532117, "lon": 53.56823608238236, "alt_km": 359.3944370585523, "timestamp": "2025-12-05T07:38:17.628293+00:00", "meta": {"OBJECT_NAME": "STARLINK-35728", "OBJECT_ID": "2025-265AE", "EPOCH": "2025-12-04T18:00:02.000160", "MEAN_MOTION": 15.72747217, "ECCENTRICITY": 0.0001256, "INCLINATION": 43.0002, "RA_OF_ASC_NODE": 101.1266, "ARG_OF_PERICENTER": 278.1157, "MEAN_ANOMALY": 50.0961, "EPHEMERIS_TYPE": 0, "CLASSIFICATION_TYPE": "U", "NORAD_CAT_ID": 66544, "ELEMENT_SET_NO": 999, "REV_AT_EPOCH": 371, "BSTAR": -0.015052, "MEAN_MOTION_DOT": -0.01829293, "MEAN_MOTION_DDOT": 0}, "tle": {"line1": "1 66544U 25265AE  25338.75002315 -.01829293  00000+0 -15052-1 0  9998", "line2": "2 66544  43.0002 101.1266 0001256 278.1157  50.0961 15.72747217  3713"}}, "geometry": {"type": "Point", "coordinates": [53.56823608238236, -32.97579546532117]}}, {"type": "Feature", "properties": {"norad_id": 66545, "name": "SHIJIAN-30A", "group": "last-30-days", "lat": 47.565401866918116, "lon": 67.0959303972434, "alt_km": 514.6941759063147, "timestamp": "2025-12-05T07:38:17.628310+00:00", "meta": {"OBJECT_NAME": "SHIJIAN-30A", "OBJECT_ID": "2025-266A", "EPOCH": "2025-12-04T17:05:12.098976", "MEAN_MOTION": 15.15395635, "ECCENTRICITY": 0.0012832, "INCLINATION": 51.7998, "RA_OF_ASC_NODE": 10.4683, "ARG_OF_PERICENTER": 328.04, "MEAN_ANOMALY": 31.9797, "EPHEMERIS_TYPE": 0, "CLASSIFICATION_TYPE": "U", "NORAD_CAT_ID": 66545, "ELEMENT_SET_NO": 999, "REV_AT_EPOCH": 236, "BSTAR": 0.0011541, "MEAN_MOTION_DOT": 0.00021866, "MEAN_MOTION_DDOT": 0}, "tle": {"line1": "1 66545U 25266A   25338.71194559  .00021866  00000+0  11541-2 0  9995", "line2": "2 66545  51.7998  10.4683 0012832 328.0400  31.9797 15.15395635  2362"}}, "geometry": {"type": "Point", "coordinates": [67.0959303972434, 47.565401866918116]}}, {"type": "Feature", "properties": {"norad_id": 66546, "name": "SHIJIAN-30B", "group": "last-30-days", "lat": 45.40283236875916, "lon": 60.63899577351614, "alt_km": 513.5116060920609, "timestamp": "2025-12-05T07:38:17.628320+00:00", "meta": {"OBJECT_NAME": "SHIJIAN-30B", "OBJECT_ID": "2025-266B", "EPOCH": "2025-12-04T17:06:32.703264", "MEAN_MOTION": 15.15466175, "ECCENTRICITY": 0.00105, "INCLINATION": 51.7981, "RA_OF_ASC_NODE": 10.4721, "ARG_OF_PERICENTER": 331.0664, "MEAN_ANOMALY": 28.9729, "EPHEMERIS_TYPE": 0, "CLASSIFICATION_TYPE": "U", "NORAD_CAT_ID": 66546, "ELEMENT_SET_NO": 999, "REV_AT_EPOCH": 236, "BSTAR": 0.0013161, "MEAN_MOTION_DOT": 0.00025025, "MEAN_MOTION_DDOT": 0}, "tle": {"line1": "1 66546U 25266B   25338.71287851  .00025025  00000+0  13161-2 0  9995", "line2": "2 66546  51.7981  10.4721 0010500 331.0664  28.9729 15.15466175  2363"}}, "geometry": {"type": "Point", "coordinates": [60.63899577351614, 45.40283236875916]}}, {"type": "Feature", "properties": {"norad_id": 66547, "name": "SHIJIAN-30C", "group": "last-30-days", "lat": 43.4518578640293, "lon": 55.89239800108007, "alt_km": 514.2840983327542, "timestamp": "2025-12-05T07:38:17.628330+00:00", "meta": {"OBJECT_NAME": "SHIJIAN-30C", "OBJECT_ID": "2025-266C", "EPOCH": "2025-12-04T17:07:35.369184", "MEAN_MOTION": 15.15495105, "ECCENTRICITY": 0.001136, "INCLINATION": 51.7993, "RA_OF_ASC_NODE": 10.4772, "ARG_OF_PERICENTER": 323.1622, "MEAN_ANOMALY": 36.8573, "EPHEMERIS_TYPE": 0, "CLASSIFICATION_TYPE": "U", "NORAD_CAT_ID": 66547, "ELEMENT_SET_NO": 999, "REV_AT_EPOCH": 236, "BSTAR": 0.0012189, "MEAN_MOTION_DOT": 0.00023171, "MEAN_MOTION_DDOT": 0}, "tle": {"line1": "1 66547U 25266C   25338.71360381  .00023171  00000+0  12189-2 0  9995", "line2": "2 66547  51.7993  10.4772 0011360 323.1622  36.8573 15.15495105  2364"}}, "geometry": {"type": "Point", "coordinates": [55.89239800108007, 43.4518578640293]}}, {"type": "Feature", "properties": {"norad_id": 66548, "name": "CZ-2C R/B", "group": "last-30-days", "lat": 2.369989512706256, "lon": -175.22004616893759, "alt_km": 425.67597740396195, "timestamp": "2025-12-05T07:38:17.628340+00:00", "meta": {"OBJECT_NAME": "CZ-2C R/B", "OBJECT_ID": "2025-266D", "EPOCH": "2025-12-04T16:45:47.744928", "MEAN_MOTION": 15.29913665, "ECCENTRICITY": 0.0084589, "INCLINATION": 52.0558, "RA_OF_ASC_NODE": 9.5833, "ARG_OF_PERICENTER": 145.7041, "MEAN_ANOMALY": 214.9448, "EPHEMERIS_TYPE": 0, "CLASSIFICATION_TYPE": "U", "NORAD_CAT_ID": 66548, "ELEMENT_SET_NO": 999, "REV_AT_EPOCH": 238, "BSTAR": 0.0007206, "MEAN_MOTION_DOT": 0.00023297, "MEAN_MOTION_DDOT": 0}, "tle": {"line1": "1 66548U 25266D   25338.69846927  .00023297  00000+0  72060-3 0  9992", "line2": "2 66548  52.0558   9.5833 0084589 145.7041 214.9448 15.29913665  2382"}}, "geometry": {"type": "Point", "coordinates": [-175.22004616893759, 2.369989512706256]}}, {"type": "Feature", "properties": {"norad_id": 66549, "name": "SHIJIAN-28", "group": "last-30-days", "lat": 12.668308440566229, "lon": -25.805837771054605, "alt_km": 12007.356509273093, "timestamp": "2025-12-05T07:38:17.628352+00:00", "meta": {"OBJECT_NAME": "SHIJIAN-28", "OBJECT_ID": "2025-277A", "EPOCH": "2025-11-30T18:06:43.124256", "MEAN_MOTION": 2.28019775, "ECCENTRICITY": 0.7300519, "INCLINATION": 14.4344, "RA_OF_ASC_NODE": 275.4056, "ARG_OF_PERICENTER": 179.5026, "MEAN_ANOMALY": 182.358, "EPHEMERIS_TYPE": 0, "CLASSIFICATION_TYPE": "U", "NORAD_CAT_ID": 66549, "ELEMENT_SET_NO": 999, "REV_AT_EPOCH": 4, "BSTAR": 0.00062085, "MEAN_MOTION_DOT": 6.315e-05, "MEAN_MOTION_DDOT": 0}, "tle": {"line1": "1 66549U 25277A   25334.75466579  .00006315  00000+0  62085-3 0  9997", "line2": "2 66549  14.4344 275.4056 7300519 179.5026 182.3580  2.28019775    48"}}, "geometry": {"type": "Point", "coordinates": [-25.805837771054605, 12.668308440566229]}}, {"type": "Feature", "properties": {"norad_id": 66550, "name": "CZ-7A R/B", "group": "last-30-days", "lat": 0.3988405486250997, "lon": -84.90349114530127, "alt_km": 34212.75215345892, "timestamp": "2025-12-05T07:38:17.628366+00:00", "meta": {"OBJECT_NAME": "CZ-7A R/B", "OBJECT_ID": "2025-277B", "EPOCH": "2025-12-01T03:57:29.558880", "MEAN_MOTION": 2.40161271, "ECCENTRICITY": 0.72362879, "INCLINATION": 14.4278, "RA_OF_ASC_NODE": 275.378, "ARG_OF_PERICENTER": 178.5774, "MEAN_ANOMALY": 186.2906, "EPHEMERIS_TYPE": 0, "CLASSIFICATION_TYPE": "U", "NORAD_CAT_ID": 66550, "ELEMENT_SET_NO": 999, "REV_AT_EPOCH": 5, "BSTAR": 4.4603974e-05, "MEAN_MOTION_DOT": 0.00016399, "MEAN_MOTION_DDOT": -7.1945e-08}, "tle": {"line1": "1 66550U 25277B   25335.16492545  .00016399 -71945-7  44604-4 0  9993", "line2": "2 66550  14.4278 275.3780 7236287 178.5774 186.2906  2.40161271    57"}}, "geometry": {"type": "Point", "coordinates": [-84.90349114530127, 0.3988405486250997]}}]}